CCSDS_OMM_VERS = 2.0
CREATION_DATE  = 
ORIGINATOR     = 

OBJECT_NAME    = STARLINK-36994
OBJECT_ID      = 2026-039M
CENTER_NAME    = EARTH
REF_FRAME      = TEME
TIME_SYSTEM    = UTC
MEAN_ELEMENT_THEORY = SGP/SGP4

EPOCH          = 2026-03-27T00:54:52.240032
MEAN_MOTION    = 15.50627338
ECCENTRICITY   = .00048744
INCLINATION    = 43.0022
RA_OF_ASC_NODE = 311.2146
ARG_OF_PERICENTER = 259.8872
MEAN_ANOMALY   = 100.1438

EPHEMERIS_TYPE = 0
CLASSIFICATION_TYPE = U
NORAD_CAT_ID   = 67997
ELEMENT_SET_NO = 999
REV_AT_EPOCH   = 435
BSTAR          = .14492028E-2
MEAN_MOTION_DOT = .85791E-3
MEAN_MOTION_DDOT = 0

CCSDS_OMM_VERS = 2.0
CREATION_DATE  = 
ORIGINATOR     = 

OBJECT_NAME    = STARLINK-36988
OBJECT_ID      = 2026-039N
CENTER_NAME    = EARTH
REF_FRAME      = TEME
TIME_SYSTEM    = UTC
MEAN_ELEMENT_THEORY = SGP/SGP4

EPOCH          = 2026-03-27T02:22:09.097824
MEAN_MOTION    = 15.48702265
ECCENTRICITY   = .00022057
INCLINATION    = 42.9983
RA_OF_ASC_NODE = 310.8105
ARG_OF_PERICENTER = 9.3777
MEAN_ANOMALY   = 350.7124

EPHEMERIS_TYPE = 0
CLASSIFICATION_TYPE = U
NORAD_CAT_ID   = 67998
ELEMENT_SET_NO = 999
REV_AT_EPOCH   = 436
BSTAR          = -.61959344E-2
MEAN_MOTION_DOT = -.326647E-2
MEAN_MOTION_DDOT = 0

CCSDS_OMM_VERS = 2.0
CREATION_DATE  = 
ORIGINATOR     = 

OBJECT_NAME    = STARLINK-36926
OBJECT_ID      = 2026-039P
CENTER_NAME    = EARTH
REF_FRAME      = TEME
TIME_SYSTEM    = UTC
MEAN_ELEMENT_THEORY = SGP/SGP4

EPOCH          = 2026-03-27T00:52:28.993152
MEAN_MOTION    = 15.50603871
ECCENTRICITY   = .00022114
INCLINATION    = 43.0000
RA_OF_ASC_NODE = 311.2019
ARG_OF_PERICENTER = 281.0458
MEAN_ANOMALY   = 79.0153

EPHEMERIS_TYPE = 0
CLASSIFICATION_TYPE = U
NORAD_CAT_ID   = 67999
ELEMENT_SET_NO = 999
REV_AT_EPOCH   = 435
BSTAR          = .12430116E-2
MEAN_MOTION_DOT = .73334E-3
MEAN_MOTION_DDOT = 0

CCSDS_OMM_VERS = 2.0
CREATION_DATE  = 
ORIGINATOR     = 

OBJECT_NAME    = STARLINK-36931
OBJECT_ID      = 2026-039Q
CENTER_NAME    = EARTH
REF_FRAME      = TEME
TIME_SYSTEM    = UTC
MEAN_ELEMENT_THEORY = SGP/SGP4

EPOCH          = 2026-03-27T06:00:02.999808
MEAN_MOTION    = 15.45827942
ECCENTRICITY   = .0001204
INCLINATION    = 43.0004
RA_OF_ASC_NODE = 309.6968
ARG_OF_PERICENTER = 262.0551
MEAN_ANOMALY   = 315.9524

EPHEMERIS_TYPE = 0
CLASSIFICATION_TYPE = U
NORAD_CAT_ID   = 68000
ELEMENT_SET_NO = 999
REV_AT_EPOCH   = 570
BSTAR          = -.42089251E-1
MEAN_MOTION_DOT = -.1878494E-1
MEAN_MOTION_DDOT = 0

CCSDS_OMM_VERS = 2.0
CREATION_DATE  = 
ORIGINATOR     = 

OBJECT_NAME    = STARLINK-36903
OBJECT_ID      = 2026-039R
CENTER_NAME    = EARTH
REF_FRAME      = TEME
TIME_SYSTEM    = UTC
MEAN_ELEMENT_THEORY = SGP/SGP4

EPOCH          = 2026-03-27T06:00:02.999808
MEAN_MOTION    = 15.33201421
ECCENTRICITY   = .00013441
INCLINATION    = 42.9991
RA_OF_ASC_NODE = 310.2622
ARG_OF_PERICENTER = 277.9930
MEAN_ANOMALY   = 68.7190

EPHEMERIS_TYPE = 0
CLASSIFICATION_TYPE = U
NORAD_CAT_ID   = 68001
ELEMENT_SET_NO = 999
REV_AT_EPOCH   = 570
BSTAR          = -.75105592E-1
MEAN_MOTION_DOT = -.2203806E-1
MEAN_MOTION_DDOT = 0

CCSDS_OMM_VERS = 2.0
CREATION_DATE  = 
ORIGINATOR     = 

OBJECT_NAME    = STARLINK-36898
OBJECT_ID      = 2026-039S
CENTER_NAME    = EARTH
REF_FRAME      = TEME
TIME_SYSTEM    = UTC
MEAN_ELEMENT_THEORY = SGP/SGP4

EPOCH          = 2026-03-27T06:00:02.999808
MEAN_MOTION    = 15.31761487
ECCENTRICITY   = .00008407
INCLINATION    = 43.0002
RA_OF_ASC_NODE = 310.0971
ARG_OF_PERICENTER = 265.4270
MEAN_ANOMALY   = 148.8400

EPHEMERIS_TYPE = 0
CLASSIFICATION_TYPE = U
NORAD_CAT_ID   = 68002
ELEMENT_SET_NO = 999
REV_AT_EPOCH   = 570
BSTAR          = -.81258512E-1
MEAN_MOTION_DOT = -.2269652E-1
MEAN_MOTION_DDOT = 0

CCSDS_OMM_VERS = 2.0
CREATION_DATE  = 
ORIGINATOR     = 

OBJECT_NAME    = STARLINK-36862
OBJECT_ID      = 2026-039T
CENTER_NAME    = EARTH
REF_FRAME      = TEME
TIME_SYSTEM    = UTC
MEAN_ELEMENT_THEORY = SGP/SGP4

EPOCH          = 2026-03-27T06:00:02.999808
MEAN_MOTION    = 15.30579075
ECCENTRICITY   = .00006343
INCLINATION    = 42.9996
RA_OF_ASC_NODE = 310.2718
ARG_OF_PERICENTER = 242.7628
MEAN_ANOMALY   = 98.5499

EPHEMERIS_TYPE = 0
CLASSIFICATION_TYPE = U
NORAD_CAT_ID   = 68003
ELEMENT_SET_NO = 999
REV_AT_EPOCH   = 570
BSTAR          = -.10599527E+0
MEAN_MOTION_DOT = -.2831357E-1
MEAN_MOTION_DDOT = 0

CCSDS_OMM_VERS = 2.0
CREATION_DATE  = 
ORIGINATOR     = 

OBJECT_NAME    = STARLINK-36888
OBJECT_ID      = 2026-039U
CENTER_NAME    = EARTH
REF_FRAME      = TEME
TIME_SYSTEM    = UTC
MEAN_ELEMENT_THEORY = SGP/SGP4

EPOCH          = 2026-03-27T06:00:02.999808
MEAN_MOTION    = 15.31242924
ECCENTRICITY   = .0001617
INCLINATION    = 42.9998
RA_OF_ASC_NODE = 310.2894
ARG_OF_PERICENTER = 281.2312
MEAN_ANOMALY   = 53.4965

EPHEMERIS_TYPE = 0
CLASSIFICATION_TYPE = U
NORAD_CAT_ID   = 68004
ELEMENT_SET_NO = 999
REV_AT_EPOCH   = 570
BSTAR          = -.83260948E-1
MEAN_MOTION_DOT = -.2286298E-1
MEAN_MOTION_DDOT = 0

CCSDS_OMM_VERS = 2.0
CREATION_DATE  = 
ORIGINATOR     = 

OBJECT_NAME    = STARLINK-36910
OBJECT_ID      = 2026-039V
CENTER_NAME    = EARTH
REF_FRAME      = TEME
TIME_SYSTEM    = UTC
MEAN_ELEMENT_THEORY = SGP/SGP4

EPOCH          = 2026-03-27T06:00:02.999808
MEAN_MOTION    = 15.31143292
ECCENTRICITY   = .00010609
INCLINATION    = 42.9995
RA_OF_ASC_NODE = 310.0282
ARG_OF_PERICENTER = 257.5524
MEAN_ANOMALY   = 182.7401

EPHEMERIS_TYPE = 0
CLASSIFICATION_TYPE = U
NORAD_CAT_ID   = 68005
ELEMENT_SET_NO = 999
REV_AT_EPOCH   = 570
BSTAR          = -.82591561E-1
MEAN_MOTION_DOT = -.2263248E-1
MEAN_MOTION_DDOT = 0

CCSDS_OMM_VERS = 2.0
CREATION_DATE  = 
ORIGINATOR     = 

OBJECT_NAME    = STARLINK-36889
OBJECT_ID      = 2026-039W
CENTER_NAME    = EARTH
REF_FRAME      = TEME
TIME_SYSTEM    = UTC
MEAN_ELEMENT_THEORY = SGP/SGP4

EPOCH          = 2026-03-27T06:00:02.999808
MEAN_MOTION    = 15.40522404
ECCENTRICITY   = .00015271
INCLINATION    = 42.9997
RA_OF_ASC_NODE = 310.0617
ARG_OF_PERICENTER = 269.0984
MEAN_ANOMALY   = 159.9579

EPHEMERIS_TYPE = 0
CLASSIFICATION_TYPE = U
NORAD_CAT_ID   = 68006
ELEMENT_SET_NO = 999
REV_AT_EPOCH   = 570
BSTAR          = -.49982675E-1
MEAN_MOTION_DOT = -.1863767E-1
MEAN_MOTION_DDOT = 0

CCSDS_OMM_VERS = 2.0
CREATION_DATE  = 
ORIGINATOR     = 

OBJECT_NAME    = STARLINK-36592
OBJECT_ID      = 2026-039X
CENTER_NAME    = EARTH
REF_FRAME      = TEME
TIME_SYSTEM    = UTC
MEAN_ELEMENT_THEORY = SGP/SGP4

EPOCH          = 2026-03-27T06:00:02.999808
MEAN_MOTION    = 15.34923696
ECCENTRICITY   = .00013759
INCLINATION    = 42.9991
RA_OF_ASC_NODE = 309.9147
ARG_OF_PERICENTER = 253.0730
MEAN_ANOMALY   = 234.4708

EPHEMERIS_TYPE = 0
CLASSIFICATION_TYPE = U
NORAD_CAT_ID   = 68007
ELEMENT_SET_NO = 999
REV_AT_EPOCH   = 570
BSTAR          = -.71299947E-1
MEAN_MOTION_DOT = -.2210165E-1
MEAN_MOTION_DDOT = 0

CCSDS_OMM_VERS = 2.0
CREATION_DATE  = 
ORIGINATOR     = 

OBJECT_NAME    = STARLINK-36911
OBJECT_ID      = 2026-039Y
CENTER_NAME    = EARTH
REF_FRAME      = TEME
TIME_SYSTEM    = UTC
MEAN_ELEMENT_THEORY = SGP/SGP4

EPOCH          = 2026-03-27T06:00:02.999808
MEAN_MOTION    = 15.38631831
ECCENTRICITY   = .00014571
INCLINATION    = 42.9986
RA_OF_ASC_NODE = 309.8910
ARG_OF_PERICENTER = 273.6144
MEAN_ANOMALY   = 223.8618

EPHEMERIS_TYPE = 0
CLASSIFICATION_TYPE = U
NORAD_CAT_ID   = 68008
ELEMENT_SET_NO = 999
REV_AT_EPOCH   = 570
BSTAR          = -.53735241E-1
MEAN_MOTION_DOT = -.1879808E-1
MEAN_MOTION_DDOT = 0

