STARLINK-36994          
1 67997U 26039M   26086.03810463  .00085791  00000+0  14492-2 0  9996
2 67997  43.0022 311.2146 0004874 259.8872 100.1438 15.50627338  4352
STARLINK-36988          
1 67998U 26039N   26086.09871641 -.00326647  00000+0 -61959-2 0  9998
2 67998  42.9983 310.8105 0002205   9.3777 350.7124 15.48702265  4361
STARLINK-36926          
1 67999U 26039P   26086.03644668  .00073334  00000+0  12430-2 0  9990
2 67999  43.0000 311.2019 0002211 281.0458  79.0153 15.50603871  4353
STARLINK-36931          
1 68000U 26039Q   26086.25003472 -.01878494  00000+0 -42089-1 0  9995
2 68000  43.0004 309.6968 0001204 262.0551 315.9524 15.45827942  5704
STARLINK-36903          
1 68001U 26039R   26086.25003472 -.02203806  00000+0 -75106-1 0  9992
2 68001  42.9991 310.2622 0001344 277.9930  68.7190 15.33201421  5701
STARLINK-36898          
1 68002U 26039S   26086.25003472 -.02269652  00000+0 -81259-1 0  9990
2 68002  43.0002 310.0971 0000840 265.4270 148.8400 15.31761487  5706
STARLINK-36862          
1 68003U 26039T   26086.25003472 -.02831357  00000+0 -10600+0 0  9998
2 68003  42.9996 310.2718 0000634 242.7628  98.5499 15.30579075  5702
STARLINK-36888          
1 68004U 26039U   26086.25003472 -.02286298  00000+0 -83261-1 0  9992
2 68004  42.9998 310.2894 0001617 281.2312  53.4965 15.31242924  5709
STARLINK-36910          
1 68005U 26039V   26086.25003472 -.02263248  00000+0 -82592-1 0  9999
2 68005  42.9995 310.0282 0001060 257.5524 182.7401 15.31143292  5708
STARLINK-36889          
1 68006U 26039W   26086.25003472 -.01863767  00000+0 -49983-1 0  9998
2 68006  42.9997 310.0617 0001527 269.0984 159.9579 15.40522404  5707
STARLINK-36592          
1 68007U 26039X   26086.25003472 -.02210165  00000+0 -71300-1 0  9996
2 68007  42.9991 309.9147 0001375 253.0730 234.4708 15.34923696  5704
STARLINK-36911          
1 68008U 26039Y   26086.25003472 -.01879808  00000+0 -53735-1 0  9993
2 68008  42.9986 309.8910 0001457 273.6144 223.8618 15.38631831  5707
